STARLINK-31393          
1 59252U 24049X   24165.08564434  .00029745  00000+0  70022-3 0  9994
2 59252  43.0002 156.7027 0002059 245.6269 114.4373 15.41394855 15051
STARLINK-31425          
1 59253U 24049Y   24165.16717571 -.00000191  00000+0  26862-5 0  9996
2 59253  42.9988 156.4481 0001005 269.2852  90.7890 15.40715894 15008
STARLINK-31659          
1 59254U 24050A   24164.57277580  .00001794  00000+0  54819-4 0  9995
2 59254  53.1579 256.4349 0001278  98.5823 261.5326 15.39616102 14388
STARLINK-31629          
1 59255U 24050B   24165.51398318  .00001925  00000+0  58096-4 0  9991
2 59255  53.1596 251.6434 0001287  85.5666 274.5486 15.39619997 14545
STARLINK-31652          
1 59256U 24050C   24165.53254630  .00003757  00000+0  10381-3 0  9991
2 59256  53.1585 251.7577 0001165  95.2639 264.8499 15.39632265 14545
STARLINK-31655          
1 59257U 24050D   24165.58334491 -.01135419  00000+0 -77514-2 0  9995
2 59257  53.1538 234.6527 0001083 102.4831 288.7032 15.76764519 14786
STARLINK-31637          
1 59258U 24050E   24165.54151952 -.00000476  00000+0 -19201-5 0  9996
2 59258  53.1598 251.8116 0001255  67.1971 292.9166 15.39626123 14547
STARLINK-31506          
1 59259U 24050F   24164.54458337  .00001894  00000+0  57321-4 0  9990
2 59259  53.1590 256.2607 0001367  89.6967 270.4195 15.39618059 13239
STARLINK-31288          
1 59260U 24050G   24165.55535758 -.00001694  00000+0 -32371-4 0  9995
2 59260  53.1591 251.1833 0001326 105.2100 254.9052 15.39614458 14550
STARLINK-31639          
1 59261U 24050H   24165.53721337 -.00001116  00000+0 -17941-4 0  9999
2 59261  53.1592 251.7869 0001182  82.7878 277.3261 15.39606616 14545
STARLINK-31673          
1 59262U 24050J   24165.51863162  .00002643  00000+0  76061-4 0  9993
2 59262  53.1593 251.6691 0001050  94.5143 265.5982 15.39608031 14541
STARLINK-31598          
1 59263U 24050K   24164.53552940  .00000485  00000+0  22098-4 0  9997
2 59263  53.1576 255.4660 0001320  91.8986 268.2170 15.39619361 13249
STARLINK-31645          
1 59264U 24050L   24165.56496628 -.00002868  00000+0 -61738-4 0  9995
2 59264  53.1598 251.2434 0001391  82.4708 277.6455 15.39626507 14558
STARLINK-31646          
1 59265U 24050M   24165.23542532  .00001647  00000+0  51162-4 0  9998
2 59265  53.1580 252.7443 0001587  89.2592 270.8595 15.39608045 14501
STARLINK-31648          
1 59266U 24050N   24165.52791696 -.00001462  00000+0 -26589-4 0  9990
2 59266  53.1576 251.7250 0001404  83.5163 276.6002 15.39611829 14546
STARLINK-31579          
1 59267U 24050P   24165.50469591  .00001365  00000+0  44095-4 0  9997
2 59267  53.1593 251.5811 0001267  97.5474 262.5674 15.39619296 14549
STARLINK-31627          
1 59268U 24050Q   24165.55103689 -.00001666  00000+0 -31704-4 0  9995
2 59268  53.1566 251.1583 0000883 129.9624 230.1459 15.39613510 14558
STARLINK-31609          
1 59269U 24050R   24165.56032626 -.00000390  00000+0  23633-6 0  9995
2 59269  53.1586 251.2156 0001126  81.3030 278.8102 15.39615179 14558
STARLINK-31616          
1 59270U 24050S   24165.55568414  .00001560  00000+0  48999-4 0  9994
2 59270  53.1588 251.1835 0001310  74.9488 285.1662 15.39610501 14551
STARLINK-31630          
1 59271U 24050T   24165.48114404  .00005018  00000+0  13531-3 0  9998
2 59271  53.1565 251.4324 0000789 132.8963 227.2108 15.39626444 14548
STARLINK-31623          
1 59272U 24050U   24164.56812899  .00002426  00000+0  70621-4 0  9994
2 59272  53.1601 256.4006 0001376 104.1674 255.9483 15.39615811 13231
STARLINK-31595          
1 59273U 24050V   24165.22613280  .00002457  00000+0  71398-4 0  9998
2 59273  53.1609 252.6887 0001602  96.6317 263.4870 15.39622151 14494
STARLINK-31463          
1 59296U 24056A   24165.24392391 -.00001641  00000+0 -32046-4 0  9991
2 59296  42.9982 250.1198 0000446 217.1312 142.9514 15.40702495 13719
STARLINK-31487          
1 59297U 24056B   24165.52102333 -.00002683  00000+0 -57011-4 0  9994
2 59297  43.0011 247.8889 0001465 276.0908  83.9782 15.40692536 13863
STARLINK-31386          
1 59298U 24056C   24165.53671001  .00001931  00000+0  53512-4 0  9994
2 59298  43.0040 248.0140 0002817 283.1153  76.9389 15.40695969 13466
STARLINK-31409          
1 59299U 24056D   24165.29530328  .00025380  00000+0  61239-3 0  9992
2 59299  42.9984 249.6451 0001643 249.0616 111.0064 15.40720369 13829
STARLINK-31489          
1 59300U 24056E   24165.28634001  .00003717  00000+0  96155-4 0  9993
2 59300  42.9973 249.5685 0001069 203.7668 156.3139 15.40710590 13723
STARLINK-31502          
1 59301U 24056F   24165.50983770 -.00001247  00000+0 -22612-4 0  9994
2 59301  43.0003 247.8031 0000562 260.0750 100.0043 15.40678502 13491
STARLINK-31447          
1 59302U 24056G   24165.30202866  .00003620  00000+0  93876-4 0  9998
2 59302  43.0038 249.6944 0001951 257.7238 102.3400 15.40701158 13722
STARLINK-31504          
1 59303U 24056H   24165.52773640  .00002795  00000+0  74125-4 0  9994
2 59303  43.0007 247.9428 0001353 273.4636  86.6066 15.40706799 13762
STARLINK-31474          
1 59304U 24056J   24165.51429451  .00004223  00000+0  10831-3 0  9993
2 59304  43.0003 247.8371 0000731 222.3229 137.7571 15.40697550 13555
STARLINK-31500          
1 59305U 24056K   24165.53223616 -.00001920  00000+0 -38735-4 0  9998
2 59305  42.9961 247.9690 0001251 153.4195 206.6726 15.40680472 13706
STARLINK-31480          
1 59306U 24056L   24165.54118920 -.00001070  00000+0 -18366-4 0  9995
2 59306  42.9990 248.0458 0001319 280.9167  79.1541 15.40687002 13606
STARLINK-31282          
1 59307U 24056M   24164.55307057  .00001068  00000+0  32841-4 0  9996
2 59307  43.0000 253.5271 0001703 268.9825  91.0836 15.40695529 13602
STARLINK-31485          
1 59308U 24056N   24165.51878342 -.00002014  00000+0 -40997-4 0  9999
2 59308  42.9990 247.8716 0000466 171.0521 189.0344 15.40692343 13761
STARLINK-31455          
1 59309U 24056P   24165.23271850  .00001858  00000+0  51746-4 0  9997
2 59309  43.0019 250.0310 0002301 273.6602  86.3991 15.40698903 13508
STARLINK-31475          
1 59310U 24056Q   24165.23496871 -.00003092  00000+0 -66719-4 0  9991
2 59310  43.0063 250.0559 0002854 298.3327  61.7241 15.40717498 13826
STARLINK-31469          
1 59311U 24056R   24164.60188010  .05608198  92501-5  88983-3 0  9995
2 59311  42.9803 229.5308 0006713   4.1940 117.1781 16.32721228 13982
STARLINK-31445          
1 59312U 24056S   24165.51205993 -.00002769  00000+0 -59064-4 0  9992
2 59312  42.9998 247.8187 0001299 282.9108  77.1603 15.40691228 13760
STARLINK-31495          
1 59313U 24056T   24165.50757775 -.00002263  00000+0 -46945-4 0  9995
2 59313  42.9947 247.7818 0000808 258.3358 101.7408 15.40700339 13765
STARLINK-31477          
1 59314U 24056U   24165.29082934 -.00002305  00000+0 -47954-4 0  9998
2 59314  42.9986 249.6045 0001148 248.4155 111.6579 15.40688399 13721
STARLINK-31446          
1 59315U 24056V   24165.28858244  .00004457  00000+0  11386-3 0  9990
2 59315  42.9985 249.5891 0001674 272.9315  87.1350 15.40708241 13726
STARLINK-31479          
1 59316U 24056W   24165.53432509  .00002246  00000+0  60989-4 0  9999
2 59316  42.9993 247.1169 0000871 246.7967 113.2798 15.40704810 13778
STARLINK-31349          
1 59317U 24056X   24165.53894330 -.00000166  00000+0  33094-5 0  9992
2 59317  43.0013 248.0220 0001915 287.4837  72.5810 15.40692779 13817
STARLINK-31464          
1 59318U 24056Y   24165.28410033  .00006800  00000+0  16983-3 0  9995
2 59318  42.9985 249.5543 0001798 183.3747 176.7098 15.40713874 13726
STARLINK-31402          
1 59320U 24057A   24165.14372121  .00006137  00000+0  15403-3 0  9998
2 59320  43.0010 212.1902 0001565 269.9668  90.1009 15.40707348 13539
STARLINK-31578          
1 59321U 24057B   24165.42544694  .00026587  00000+0  64089-3 0  9991
2 59321  42.9982 210.8615 0001266 264.5949  95.4763 15.40728906 13520
STARLINK-31530          
1 59322U 24057C   24165.18179222  .00009394  00000+0  23162-3 0  9990
2 59322  42.9978 212.4752 0001735 274.7847  85.2811 15.40731703 13493
STARLINK-31565          
1 59323U 24057D   24165.15715929 -.00003383  00000+0 -73731-4 0  9990
2 59323  43.0007 212.2847 0001408 273.9792  86.0903 15.40707529 13499
STARLINK-31570          
1 59324U 24057E   24165.40750687 -.00002412  00000+0 -50515-4 0  9996
2 59324  42.9977 210.7199 0000257 285.7123  74.3705 15.40694773 13527
STARLINK-31611          
1 59325U 24057F   24165.43215278 -.00020869  00000+0 -49419-3 0  9998
2 59325  42.9994 210.9125 0001446 239.4716 120.5998 15.40668730 13525
STARLINK-31632          
1 59326U 24057G   24165.40078888  .00004011  00000+0  10320-3 0  9998
2 59326  43.0004 210.6703 0001202 260.5827  99.4894 15.40706315 13539
STARLINK-31599          
1 59327U 24057H   24165.19075370  .00012238  00000+0  29946-3 0  9992
2 59327  42.9978 212.5430 0000955 235.8124 124.2642 15.40730103 13489
STARLINK-31614          
1 59328U 24057J   24165.17732103  .00007869  00000+0  19542-3 0  9990
2 59328  42.9984 212.4398 0001134 272.8021  87.2706 15.40704860 13543
STARLINK-31493          
1 59329U 24057K   24165.18628255 -.00001270  00000+0 -23147-4 0  9993
2 59329  42.9930 212.5075 0001035 126.4734 233.6217 15.40707173 13547
STARLINK-31634          
1 59330U 24057L   24164.57594786  .00006961  00000+0  17379-3 0  9997
2 59330  42.9972 215.6636 0000920 282.0055  78.0699 15.40692117 12229
STARLINK-31633          
1 59331U 24057M   24165.21078863  .00011373  00000+0  27902-3 0  9999
2 59331  42.9991 211.8246 0001374 277.9324  82.1377 15.40709932 13563
STARLINK-31594          
1 59332U 24057N   24165.39184510  .00013347  00000+0  32662-3 0  9998
2 59332  42.9964 210.5975 0000484 190.7836 169.3011 15.40661176 13537
STARLINK-31572          
1 59333U 24057P   24164.60940527  .00001212  00000+0  36259-4 0  9995
2 59333  42.9991 215.0455 0001344 263.0455  97.0249 15.40702816 12231
